ONEWEB-0443             
1 51637U 22012R   26167.08498161  .00000026  00000+0  33612-4 0  9994
2 51637  87.9132   6.0986 0001767  76.4911 283.6418 13.17649785213573
ONEWEB-0444             
1 51638U 22012S   26167.17970977  .00000075  00000+0  17913-3 0  9994
2 51638  87.8822  36.4676 0001777  77.4956 282.6370 13.10369359209203
ONEWEB-0445             
1 51639U 22012T   26166.89583544  .00000462  00000+0  12876-2 0  9995
2 51639  87.8843  36.5123 0001832  89.7913 270.3424 13.10381945209171
ONEWEB-0446             
1 51640U 22012U   26167.17804948  .00000335  00000+0  92302-3 0  9995
2 51640  87.8831  36.4851 0001866  86.8184 273.3157 13.10369447209193
ONEWEB-0448             
1 51641U 22012V   26167.18303035  .00000002  00000+0 -31262-4 0  9999
2 51641  87.8826  36.4806 0001757  80.3186 279.8140 13.10369335209164
ONEWEB-0449             
1 51642U 22012W   26167.18801162 -.00000965  00000+0 -28010-2 0  9998
2 51642  87.8831  36.4648 0002081  74.6425 285.4932 13.10364310209179
ONEWEB-0451             
1 51643U 22012X   26167.06980856  .00000035  00000+0  57930-4 0  9995
2 51643  87.9142   6.0653 0001997  83.0091 277.1268 13.17649508213518
ONEWEB-0452             
1 51644U 22012Y   26167.06810929  .00000065  00000+0  13522-3 0  9990
2 51644  87.9133   6.1025 0001883  78.0595 282.0748 13.17648977213528
ONEWEB-0456             
1 51646U 22012AA  26166.89249631  .00000915  00000+0  25836-2 0  9992
2 51646  87.8843  36.5107 0001591  81.9476 278.1831 13.10383757209172
ONEWEB-0457             
1 51647U 22012AB  26167.17459244  .00000511  00000+0  14282-2 0  9993
2 51647  87.8830  36.4733 0002147  88.2240 271.9133 13.10370154209218
ONEWEB-0458             
1 51648U 22012AC  26167.19629816 -.00000532  00000+0 -15595-2 0  9993
2 51648  87.8839  36.4565 0001828  76.0166 284.1165 13.10371167209179
ONEWEB-0461             
1 51649U 22012AD  26167.16598289  .00000029  00000+0  41550-4 0  9991
2 51649  87.9142   6.0601 0001925  89.6576 270.4776 13.17648865213759
ONEWEB-0463             
1 51650U 22012AE  26167.07149358  .00000044  00000+0  79972-4 0  9998
2 51650  87.9130   6.1016 0001967  91.3518 268.7839 13.17649291213520
ONEWEB-0464             
1 51651U 22012AF  26167.19298124 -.00000649  00000+0 -18967-2 0  9996
2 51651  87.8826  36.4785 0001565  76.1514 283.9787 13.10368425209191
ONEWEB-0468             
1 51652U 22012AG  26166.66510603  .00000075  00000+0  17946-3 0  9995
2 51652  87.8833  36.5774 0001488  75.5039 284.6253 13.10378273209107
ONEWEB-0473             
1 51653U 22012AH  26167.18468525 -.00000020  00000+0 -94916-4 0  9994
2 51653  87.8828  36.4763 0001778  78.9338 281.1989 13.10369258209178
ONEWEB-0474             
1 51654U 22012AJ  26167.17638917  .00000416  00000+0  11542-2 0  9997
2 51654  87.8838  36.4620 0001610  74.3866 285.7439 13.10370497209169
ONEWEB-0475             
1 51655U 22012AK  26167.08330436  .00000037  00000+0  62087-4 0  9994
2 51655  87.9133   6.0922 0001509  68.2908 291.8384 13.17648768213543
EOS-4                   
1 51656U 22013A   26167.17299380  .00001328  00000+0  79518-4 0  9999
2 51656  97.5099 173.8376 0001858  88.1345 272.0099 15.12719003239338
STARLINK-3528           
1 51714U 22016A   26166.51450427 -.00000884  00000+0 -37498-4 0  9994
2 51714  53.1598 249.8583 0000719  71.5598 288.5472 15.08835014238196
STARLINK-3533           
1 51715U 22016B   26166.50715315 -.00000923  00000+0 -39930-4 0  9991
2 51715  53.1612 249.9248 0001385  94.2589 265.8560 15.08829743239329
STARLINK-3543           
1 51716U 22016C   26166.51355191 -.00000122  00000+0  10437-4 0  9996
2 51716  53.1595 249.8861 0000653  92.1595 267.9471 15.08831629238195
STARLINK-3445           
1 51717U 22016D   26166.91549160  .00017083  00000+0  10849-2 0  9990
2 51717  53.1605 248.1655 0000791 112.9632 247.1443 15.08971051238257
STARLINK-3546           
1 51718U 22016E   26167.06279832  .00022994  00000+0  10723-2 0  9992
2 51718  53.2082 238.8115 0001511 266.5284  93.5540 15.19789812239521
STARLINK-3540           
1 51719U 22016F   26166.50988159 -.00000159  00000+0  81149-5 0  9993
2 51719  53.1592 249.9778 0001151  92.3571 267.7552 15.08832541238195
STARLINK-3526           
1 51720U 22016G   26166.95242825  .00000813  00000+0  69149-4 0  9998
2 51720  53.1601 247.8825 0001214  86.9866 273.1265 15.08830969238255
STARLINK-3524           
1 51721U 22016H   26166.96333156  .00015181  00000+0  96660-3 0  9999
2 51721  53.1599 247.8771 0000928  95.8702 264.2395 15.08961932238262
STARLINK-3535           
1 51722U 22016J   26166.94779508  .00001314  00000+0  10064-3 0  9990
2 51722  53.1591 247.9325 0000494  79.4912 280.6135 15.08835561238251
STARLINK-3529           
1 51724U 22016L   26167.13915429  .00000555  00000+0  52975-4 0  9992
2 51724  53.1590 247.0731 0001010  79.6871 280.4234 15.08832477238289
STARLINK-3522           
1 51725U 22016M   26166.55403006  .00000861  00000+0  72202-4 0  9996
2 51725  53.1587 249.7023 0001053  92.8868 267.2244 15.08835162238197
