OBJECT_NAME,OBJECT_ID,EPOCH,MEAN_MOTION,ECCENTRICITY,INCLINATION,RA_OF_ASC_NODE,ARG_OF_PERICENTER,MEAN_ANOMALY,EPHEMERIS_TYPE,CLASSIFICATION_TYPE,NORAD_CAT_ID,ELEMENT_SET_NO,REV_AT_EPOCH,BSTAR,MEAN_MOTION_DOT,MEAN_MOTION_DDOT
ONEWEB-0443,2022-012R,2026-06-16T02:02:22.411104,13.17649785,.0001767,87.9132,6.0986,76.4911,283.6418,0,U,51637,999,21357,.33612E-4,.26E-6,0
ONEWEB-0444,2022-012S,2026-06-16T04:18:46.924128,13.10369359,.0001777,87.8822,36.4676,77.4956,282.6370,0,U,51638,999,20920,.17913E-3,.75E-6,0
ONEWEB-0445,2022-012T,2026-06-15T21:30:00.182016,13.10381945,.0001832,87.8843,36.5123,89.7913,270.3424,0,U,51639,999,20917,.12876E-2,.462E-5,0
ONEWEB-0446,2022-012U,2026-06-16T04:16:23.475072,13.10369447,.0001866,87.8831,36.4851,86.8184,273.3157,0,U,51640,999,20919,.92302E-3,.335E-5,0
ONEWEB-0448,2022-012V,2026-06-16T04:23:33.822240,13.10369335,.0001757,87.8826,36.4806,80.3186,279.8140,0,U,51641,999,20916,-.31262E-4,.2E-7,0
ONEWEB-0449,2022-012W,2026-06-16T04:30:44.203968,13.10364310,.0002081,87.8831,36.4648,74.6425,285.4932,0,U,51642,999,20917,-.2801E-2,-.965E-5,0
ONEWEB-0451,2022-012X,2026-06-16T01:40:31.459584,13.17649508,.0001997,87.9142,6.0653,83.0091,277.1268,0,U,51643,999,21351,.5793E-4,.35E-6,0
ONEWEB-0452,2022-012Y,2026-06-16T01:38:04.642656,13.17648977,.0001883,87.9133,6.1025,78.0595,282.0748,0,U,51644,999,21352,.13522E-3,.65E-6,0
ONEWEB-0456,2022-012AA,2026-06-15T21:25:11.681184,13.10383757,.0001591,87.8843,36.5107,81.9476,278.1831,0,U,51646,999,20917,.25836E-2,.915E-5,0
ONEWEB-0457,2022-012AB,2026-06-16T04:11:24.786816,13.10370154,.0002147,87.8830,36.4733,88.2240,271.9133,0,U,51647,999,20921,.14282E-2,.511E-5,0
ONEWEB-0458,2022-012AC,2026-06-16T04:42:40.161024,13.10371167,.0001828,87.8839,36.4565,76.0166,284.1165,0,U,51648,999,20917,-.15595E-2,-.532E-5,0
ONEWEB-0461,2022-012AD,2026-06-16T03:59:00.921696,13.17648865,.0001925,87.9142,6.0601,89.6576,270.4776,0,U,51649,999,21375,.4155E-4,.29E-6,0
ONEWEB-0463,2022-012AE,2026-06-16T01:42:57.045312,13.17649291,.0001967,87.9130,6.1016,91.3518,268.7839,0,U,51650,999,21352,.79972E-4,.44E-6,0
ONEWEB-0464,2022-012AF,2026-06-16T04:37:53.579136,13.10368425,.0001565,87.8826,36.4785,76.1514,283.9787,0,U,51651,999,20919,-.18967E-2,-.649E-5,0
ONEWEB-0468,2022-012AG,2026-06-15T15:57:45.160992,13.10378273,.00014882,87.8833,36.5774,75.5039,284.6253,0,U,51652,999,20910,.17945574E-3,.75E-6,0
ONEWEB-0473,2022-012AH,2026-06-16T04:25:56.805600,13.10369258,.0001778,87.8828,36.4763,78.9338,281.1989,0,U,51653,999,20917,-.94916E-4,-.2E-6,0
ONEWEB-0474,2022-012AJ,2026-06-16T04:14:00.024288,13.10370497,.000161,87.8838,36.4620,74.3866,285.7439,0,U,51654,999,20916,.11542E-2,.416E-5,0
ONEWEB-0475,2022-012AK,2026-06-16T01:59:57.496704,13.17648768,.0001509,87.9133,6.0922,68.2908,291.8384,0,U,51655,999,21354,.62087E-4,.37E-6,0
EOS-4,2022-013A,2026-06-16T04:09:06.664320,15.12719003,.0001858,97.5099,173.8376,88.1345,272.0099,0,U,51656,999,23933,.79518E-4,.1328E-4,0
STARLINK-3528,2022-016A,2026-06-15T12:20:53.168928,15.08835014,.00007198,53.1598,249.8583,71.5598,288.5472,0,U,51714,999,23819,-.37497786E-4,-.884E-5,0
STARLINK-3533,2022-016B,2026-06-15T12:10:18.032160,15.08829743,.0001385,53.1612,249.9248,94.2589,265.8560,0,U,51715,999,23932,-.39930119E-4,-.923E-5,0
STARLINK-3543,2022-016C,2026-06-15T12:19:30.885024,15.08831629,.00006534,53.1595,249.8861,92.1595,267.9471,0,U,51716,999,23819,.10436559E-4,-.122E-5,0
STARLINK-3445,2022-016D,2026-06-15T21:58:18.474240,15.08971051,.0000791,53.1605,248.1655,112.9632,247.1443,0,U,51717,999,23825,.10849E-2,.17083E-3,0
STARLINK-3546,2022-016E,2026-06-16T01:30:25.774848,15.19789812,.0001511,53.2082,238.8115,266.5284,93.5540,0,U,51718,999,23952,.10723E-2,.22994E-3,0
STARLINK-3540,2022-016F,2026-06-15T12:14:13.769376,15.08832541,.00011517,53.1592,249.9778,92.3571,267.7552,0,U,51719,999,23819,.8114943E-5,-.159E-5,0
STARLINK-3526,2022-016G,2026-06-15T22:51:29.800800,15.08830969,.0001214,53.1601,247.8825,86.9866,273.1265,0,U,51720,999,23825,.69149E-4,.813E-5,0
STARLINK-3524,2022-016H,2026-06-15T23:07:11.846784,15.08961932,.0000928,53.1599,247.8771,95.8702,264.2395,0,U,51721,999,23826,.9666E-3,.15181E-3,0
STARLINK-3535,2022-016J,2026-06-15T22:44:49.494912,15.08835561,.0000494,53.1591,247.9325,79.4912,280.6135,0,U,51722,999,23825,.10064E-3,.1314E-4,0
STARLINK-3529,2022-016L,2026-06-16T03:20:22.930656,15.08832477,.000101,53.1590,247.0731,79.6871,280.4234,0,U,51724,999,23828,.52975E-4,.555E-5,0
STARLINK-3522,2022-016M,2026-06-15T13:17:48.197184,15.08835162,.00010538,53.1587,249.7023,92.8868,267.2244,0,U,51725,999,23819,.7220163E-4,.861E-5,0
